OCEANSAT-2              
1 35931U 09051A   26160.47908381  .00000074  00000+0  76170-4 0  9996
2 35931  98.2324 148.0994 0014694 259.6173 100.3337 13.99664333878257
WORLDVIEW-2 (WV-2)      
1 35946U 09055A   26160.50932640  .00000095  00000+0  45957-4 0  9997
2 35946  98.4736 234.0646 0003311 235.8228 124.2646 14.37897163874541
SMOS                    
1 36036U 09059A   26160.47550600  .00000231  00000+0  87608-4 0  9991
2 36036  98.4426 347.9236 0001334  89.7404 270.3937 14.39768408872345
YAOGAN-7                
1 36110U 09069A   26160.43873020  .00000464  00000+0  71254-4 0  9993
2 36110  98.0082  46.3534 0025931  65.6607 294.7307 14.78002011888487
TANDEM-X                
1 36605U 10030A   26160.28753286  .00000776  00000+0  40127-4 0  9997
2 36605  97.4454 168.1075 0001902  90.0350 270.1102 15.19149708885449
CARTOSAT-2B             
1 36795U 10035A   26160.48995868  .00000375  00000+0  58372-4 0  9994
2 36795  97.9955 211.0887 0010555 210.0487 150.0119 14.78650864858716
YAOGAN-10               
1 36834U 10038A   26160.54750488  .00001358  00000+0  16428-3 0  9992
2 36834  97.8983 184.0131 0001661  87.8519  30.9361 14.85325741856078
COSMO-SKYMED 4          
1 37216U 10060A   26159.39731509  .00000510  00000+0  70656-4 0  9999
2 37216  97.8890 343.1246 0001413  83.8256 276.3118 14.82162251843269
RESOURCESAT-2           
1 37387U 11015A   26160.48768213  .00000050  00000+0  42990-4 0  9992
2 37387  98.7644 227.9824 0010130 280.3579  79.6456 14.21604772785080
HAIYANG-2A              
1 37781U 11043A   26160.39491309  .00000278  00000+0  33935-3 0  9990
2 37781  99.3399 163.2429 0006308 106.3298 253.8545 13.74551006745586
RASAT                   
1 37791U 11044D   26160.54360135  .00000273  00000+0  55916-4 0  9990
2 37791  98.0566 252.0570 0019655 213.7039 204.1162 14.68158940792061
SRMSAT                  
1 37841U 11058D   26160.53493751  .00000362  00000+0  52397-4 0  9990
2 37841  19.9710 105.7844 0011936 119.8301  40.8059 14.11573956756730
PLEIADES 1A             
1 38012U 11076F   26160.52294395  .00000222  00000+0  57561-4 0  9996
2 38012  98.1971 235.7284 0001521  98.1739  26.6350 14.58566396770872
ZIYUAN 1-02C (ZY 1-02C) 
1 38038U 11079A   26160.50462895  .00000386  00000+0  14127-3 0  9998
2 38038  98.4069 227.9737 0005989 342.5908 142.9128 14.38208926758100
ARIRANG-3 (KOMPSAT-3)   
1 38338U 12025B   26160.50532781  .00000383  00000+0  85302-4 0  9996
2 38338  98.1174 118.0981 0006362 129.0268 231.1501 14.62199377750228
EXACTVIEW-1 (ADS-1B)    
1 38709U 12039C   26160.30642605  .00000102  00000+0  63336-4 0  9990
2 38709  98.9768 277.5190 0010740 188.8596 171.2394 14.24982281721585
SPOT 6                  
1 38755U 12047A   26160.51447693  .00000276  00000+0  69224-4 0  9997
2 38755  98.2116 227.9131 0001439  91.6161 268.5203 14.58558788731931
PLEIADES 1B             
1 39019U 12068A   26160.46477861  .00000308  00000+0  75981-4 0  9991
2 39019  98.1942 235.6227 0001583  93.7657 266.3723 14.58556269719724
GOKTURK 2               
1 39030U 12073A   26160.55353125  .00000254  00000+0  44256-4 0  9997
2 39030  97.6829 358.3678 0001869  59.9278 300.2117 14.75534794723388
LANDSAT 8               
1 39084U 13008A   26160.47100979  .00000258  00000+0  67264-4 0  9991
2 39084  98.2302 230.6977 0001463  95.8215 264.3150 14.57113468696774
SARAL                   
1 39086U 13009A   26160.49919395  .00000080  00000+0  45383-4 0  9997
2 39086  98.5558 347.1641 0001129 347.5084  12.6072 14.32854038694508
GAOFEN-1                
1 39150U 13018A   26160.54083278 -.00000318  00000+0 -38291-4 0  9993
2 39150  97.9091 232.7642 0015880 293.4980  66.4561 14.76526896707116
VNREDSAT 1              
1 39160U 13021B   26160.50691144  .00000478  00000+0  97991-4 0  9998
2 39160  97.9082 214.2180 0001680  89.2541 270.8855 14.64849037699160
ARIRANG-5 (KOMPSAT-5)   
1 39227U 13042A   26159.98539375  .00001848  00000+0  13611-3 0  9990
2 39227  97.6218 346.8017 0004248 139.4546 220.6997 15.04559791702625
SKYSAT-A                
1 39418U 13066C   26160.38694826  .00002352  00000+0  13645-3 0  9995
2 39418  97.3820 210.0326 0020813 345.8036  14.2608 15.12933029687303
DUBAISAT-2              
1 39419U 13066D   26160.51713380  .00004953  00000+0  30704-3 0  9992
2 39419  97.4565 150.8628 0012743  63.6649 296.5888 15.10126764685238
GPM-CORE                
1 39574U 14009C   26160.50471764  .00006215  00000+0  13404-3 0  9999
2 39574  64.9729 333.8592 0012085 270.4248  89.5508 15.45460028696622
SENTINEL-1A             
1 39634U 14016A   26160.55035509  .00000382  00000+0  90769-4 0  9991
2 39634  98.1784 168.1948 0001440  81.5146 278.6216 14.59201627648901
KAZEOSAT 1              
1 39731U 14024A   26160.45876221  .00000146  00000+0  57516-4 0  9992
2 39731  98.3202 233.0981 0001455  75.1835 284.9516 14.42077269637440
ALOS-2                  
1 39766U 14029A   26159.54979360  .00001451  00000+0  20114-3 0  9994
2 39766  97.9210 256.8376 0001671  90.6305 269.5098 14.79472067650306
KAZEOSAT 2              
1 40010U 14033A   26160.55094249  .00000077  00000+0  14790-4 0  9997
2 40010  97.5417   0.5664 0008653 355.5373   4.5764 14.85459695647823
