OBJECT_NAME,OBJECT_ID,EPOCH,MEAN_MOTION,ECCENTRICITY,INCLINATION,RA_OF_ASC_NODE,ARG_OF_PERICENTER,MEAN_ANOMALY,EPHEMERIS_TYPE,CLASSIFICATION_TYPE,NORAD_CAT_ID,ELEMENT_SET_NO,REV_AT_EPOCH,BSTAR,MEAN_MOTION_DOT,MEAN_MOTION_DDOT
OCEANSAT-2,2009-051A,2026-06-09T11:29:52.841184,13.99664333,.0014694,98.2324,148.0994,259.6173,100.3337,0,U,35931,999,87825,.7617E-4,.74E-6,0
WORLDVIEW-2 (WV-2),2009-055A,2026-06-09T12:13:25.800960,14.37897163,.0003311,98.4736,234.0646,235.8228,124.2646,0,U,35946,999,87454,.45957E-4,.95E-6,0
SMOS,2009-059A,2026-06-09T11:24:43.718400,14.39768408,.0001334,98.4426,347.9236,89.7404,270.3937,0,U,36036,999,87234,.87608E-4,.231E-5,0
YAOGAN-7,2009-069A,2026-06-09T10:31:46.289280,14.78002011,.0025931,98.0082,46.3534,65.6607,294.7307,0,U,36110,999,88848,.71254E-4,.464E-5,0
TANDEM-X,2010-030A,2026-06-09T06:54:02.839104,15.19149708,.0001902,97.4454,168.1075,90.0350,270.1102,0,U,36605,999,88544,.40127E-4,.776E-5,0
CARTOSAT-2B,2010-035A,2026-06-09T11:45:32.429952,14.78650864,.0010555,97.9955,211.0887,210.0487,150.0119,0,U,36795,999,85871,.58372E-4,.375E-5,0
YAOGAN-10,2010-038A,2026-06-09T13:08:24.421632,14.85325741,.0001661,97.8983,184.0131,87.8519,30.9361,0,U,36834,999,85607,.16428E-3,.1358E-4,0
COSMO-SKYMED 4,2010-060A,2026-06-08T09:32:08.023776,14.82162251,.00014135,97.8890,343.1246,83.8256,276.3118,0,U,37216,999,84326,.70656283E-4,.51E-5,0
RESOURCESAT-2,2011-015A,2026-06-09T11:42:15.736032,14.21604772,.001013,98.7644,227.9824,280.3579,79.6456,0,U,37387,999,78508,.4299E-4,.5E-6,0
HAIYANG-2A,2011-043A,2026-06-09T09:28:40.490976,13.74551006,.0006308,99.3399,163.2429,106.3298,253.8545,0,U,37781,999,74558,.33935E-3,.278E-5,0
RASAT,2011-044D,2026-06-09T13:02:47.156640,14.68158940,.0019655,98.0566,252.0570,213.7039,204.1162,0,U,37791,999,79206,.55916E-4,.273E-5,0
SRMSAT,2011-058D,2026-06-09T12:50:18.600864,14.11573956,.0011936,19.9710,105.7844,119.8301,40.8059,0,U,37841,999,75673,.52397E-4,.362E-5,0
PLEIADES 1A,2011-076F,2026-06-09T12:33:02.357280,14.58566396,.0001521,98.1971,235.7284,98.1739,26.6350,0,U,38012,999,77087,.57561E-4,.222E-5,0
ZIYUAN 1-02C (ZY 1-02C),2011-079A,2026-06-09T12:06:39.941280,14.38208926,.0005989,98.4069,227.9737,342.5908,142.9128,0,U,38038,999,75810,.14127E-3,.386E-5,0
ARIRANG-3 (KOMPSAT-3),2012-025B,2026-06-09T12:07:40.322784,14.62199377,.0006362,98.1174,118.0981,129.0268,231.1501,0,U,38338,999,75022,.85302E-4,.383E-5,0
EXACTVIEW-1 (ADS-1B),2012-039C,2026-06-09T07:21:15.210720,14.24982281,.001074,98.9768,277.5190,188.8596,171.2394,0,U,38709,999,72158,.63336E-4,.102E-5,0
SPOT 6,2012-047A,2026-06-09T12:20:50.806752,14.58558788,.0001439,98.2116,227.9131,91.6161,268.5203,0,U,38755,999,73193,.69224E-4,.276E-5,0
PLEIADES 1B,2012-068A,2026-06-09T11:09:16.871904,14.58556269,.0001583,98.1942,235.6227,93.7657,266.3723,0,U,39019,999,71972,.75981E-4,.308E-5,0
GOKTURK 2,2012-073A,2026-06-09T13:17:05.100000,14.75534794,.0001869,97.6829,358.3678,59.9278,300.2117,0,U,39030,999,72338,.44256E-4,.254E-5,0
LANDSAT 8,2013-008A,2026-06-09T11:18:15.245856,14.57113468,.0001463,98.2302,230.6977,95.8215,264.3150,0,U,39084,999,69677,.67264E-4,.258E-5,0
SARAL,2013-009A,2026-06-09T11:58:50.357280,14.32854038,.0001129,98.5558,347.1641,347.5084,12.6072,0,U,39086,999,69450,.45383E-4,.8E-6,0
GAOFEN-1,2013-018A,2026-06-09T12:58:47.952192,14.76526896,.001588,97.9091,232.7642,293.4980,66.4561,0,U,39150,999,70711,-.38291E-4,-.318E-5,0
VNREDSAT 1,2013-021B,2026-06-09T12:09:57.148416,14.64849037,.000168,97.9082,214.2180,89.2541,270.8855,0,U,39160,999,69916,.97991E-4,.478E-5,0
ARIRANG-5 (KOMPSAT-5),2013-042A,2026-06-08T23:38:58.020000,15.04559791,.0004248,97.6218,346.8017,139.4546,220.6997,0,U,39227,999,70262,.13610837E-3,.1848E-4,0
SKYSAT-A,2013-066C,2026-06-09T09:17:12.329664,15.12933029,.0020813,97.3820,210.0326,345.8036,14.2608,0,U,39418,999,68730,.13645E-3,.2352E-4,0
DUBAISAT-2,2013-066D,2026-06-09T12:24:40.360320,15.10126764,.0012743,97.4565,150.8628,63.6649,296.5888,0,U,39419,999,68523,.30704E-3,.4953E-4,0
GPM-CORE,2014-009C,2026-06-09T12:06:47.604096,15.45460028,.0012085,64.9729,333.8592,270.4248,89.5508,0,U,39574,999,69662,.13404E-3,.6215E-4,0
SENTINEL-1A,2014-016A,2026-06-09T13:12:30.679776,14.59201627,.000144,98.1784,168.1948,81.5146,278.6216,0,U,39634,999,64890,.90769E-4,.382E-5,0
KAZEOSAT 1,2014-024A,2026-06-09T11:00:37.054944,14.42077269,.0001455,98.3202,233.0981,75.1835,284.9516,0,U,39731,999,63744,.57516E-4,.146E-5,0
ALOS-2,2014-029A,2026-06-08T13:11:42.167040,14.79472067,.00016718,97.9210,256.8376,90.6305,269.5098,0,U,39766,999,65030,.20114351E-3,.1451E-4,0
KAZEOSAT 2,2014-033A,2026-06-09T13:13:21.431136,14.85459695,.0008653,97.5417,0.5664,355.5373,4.5764,0,U,40010,999,64782,.1479E-4,.77E-6,0
